NORAD_CAT_ID,OBJECT_NAME,OBJECT_TYPE,EPOCH,MEAN_MOTION,ECCENTRICITY,INCLINATION,RA_OF_ASC_NODE,ARG_OF_PERICENTER,MEAN_ANOMALY,BSTAR,MEAN_MOTION_DOT,MEAN_MOTION_DDOT,TLE_LINE0,TLE_LINE1,TLE_LINE2,SEMIMAJOR_AXIS,PERIOD,APOGEE,PERIGEE,DECAYED
53787.0,STARLINK-4743,PAYLOAD,2023-08-11 07:41:24,15.08841639,0.0001295,53.2152,179.9284,93.7967,266.3174,9.3849e-05,1.206e-05,0.0,0 STARLINK-4743,1 53787U 22111Q   23223.32042528  .00001206  00000-0  93849-4 0  9991,2 53787  53.2152 179.9284 0001295  93.7967 266.3174 15.08841639 50771,6917.875,95.437,540.636,538.845,0.0
53787.0,STARLINK-4743,PAYLOAD,2023-08-12 01:10:40,15.08830387,0.0001328,53.2149,176.6571,84.7896,275.3248,2.5023e-05,1.1e-06,0.0,0 STARLINK-4743,1 53787U 22111Q   23224.04907763  .00000110  00000-0  25023-4 0  9994,2 53787  53.2149 176.6571 0001328  84.7896 275.3248 15.08830387 50880,6917.91,95.438,540.693,538.856,0.0
53787.0,STARLINK-4743,PAYLOAD,2023-08-12 05:56:51,15.0874862,0.000189,53.216,175.7652,84.9526,275.1682,0.0012556,0.00019702,0.0,0 STARLINK-4743,1 53787U 22111Q   23224.24781718  .00019702  00000-0  12556-2 0  9998,2 53787  53.2160 175.7652 0001890  84.9526 275.1682 15.08748620 50911,6918.16,95.443,541.332,538.717,0.0
53787.0,STARLINK-4743,PAYLOAD,2023-08-12 13:53:45,15.08836003,0.0001379,53.2166,174.2785,88.2298,271.8852,9.7517e-05,1.264e-05,0.0,0 STARLINK-4743,1 53787U 22111Q   23224.57899425  .00001264  00000-0  97517-4 0  9995,2 53787  53.2166 174.2785 0001379  88.2298 271.8852 15.08836003 50963,6917.893,95.438,540.712,538.804,0.0
53787.0,STARLINK-4743,PAYLOAD,2023-08-13 02:36:48,15.08866194,0.0001986,53.2165,171.9003,85.1421,274.9798,-0.00013046,-2.365e-05,0.0,0 STARLINK-4743,1 53787U 22111Q   23225.10889931 -.00002365  00000-0 -13046-3 0  9995,2 53787  53.2165 171.9003 0001986  85.1421 274.9798 15.08866194 51044,6917.8,95.436,541.039,538.291,0.0
53787.0,STARLINK-4743,PAYLOAD,2023-08-13 05:47:35,15.08860767,0.0001164,53.2164,171.306,94.1288,265.9838,-5.6872e-06,-3.78e-06,0.0,0 STARLINK-4743,1 53787U 22111Q   23225.24138120 -.00000378  00000-0 -56872-5 0  9995,2 53787  53.2164 171.3060 0001164  94.1288 265.9838 15.08860767 51066,6917.817,95.436,540.487,538.877,0.0
53787.0,STARLINK-4743,PAYLOAD,2023-08-14 00:52:14,15.0883824,0.0001328,53.2167,167.7384,91.7569,268.3575,3.7354e-05,3.07e-06,0.0,0 STARLINK-4743,1 53787U 22111Q   23226.03627483  .00000307  00000-0  37354-4 0  9991,2 53787  53.2167 167.7384 0001328  91.7569 268.3575 15.08838240 51183,6917.886,95.438,540.669,538.832,0.0
53787.0,STARLINK-4743,PAYLOAD,2023-08-15 02:18:24,15.08841348,0.0001412,53.2173,162.9811,92.0893,268.0261,2.8663e-05,1.68e-06,0.0,0 STARLINK-4743,1 53787U 22111Q   23227.09611373  .00000168  00000-0  28663-4 0  9997,2 53787  53.2173 162.9811 0001412  92.0893 268.0261 15.08841348 51340,6917.876,95.437,540.718,538.764,0.0
53787.0,STARLINK-4743,PAYLOAD,2023-08-15 05:29:10,15.08849478,0.0001443,53.2172,162.3858,93.3986,266.7171,4.5182e-05,4.31e-06,0.0,0 STARLINK-4743,1 53787U 22111Q   23227.22858812  .00000431  00000-0  45182-4 0  9991,2 53787  53.2172 162.3858 0001443  93.3986 266.7171 15.08849478 51364,6917.851,95.437,540.715,538.718,0.0
53787.0,STARLINK-4743,PAYLOAD,2023-08-16 02:09:11,15.08841881,0.0001386,53.2171,158.518,87.764,272.3511,3.8524e-05,3.25e-06,0.0,0 STARLINK-4743,1 53787U 22111Q   23228.08971219  .00000325  00000-0  38524-4 0  9997,2 53787  53.2171 158.5180 0001386  87.7640 272.3511 15.08841881 51493,6917.875,95.437,540.698,538.781,0.0
53787.0,STARLINK-4743,PAYLOAD,2023-08-18 01:50:45,15.0884627,0.00013,53.217,149.599,99.8595,260.2544,-3.8565e-06,-3.49e-06,0.0,0 STARLINK-4743,1 53787U 22111Q   23230.07691069 -.00000349  00000-0 -38565-5 0  9995,2 53787  53.2170 149.5990 0001300  99.8595 260.2544 15.08846270 51792,6917.861,95.437,540.626,538.827,0.0
53787.0,STARLINK-4743,PAYLOAD,2023-08-19 03:16:55,15.08843037,0.0001253,53.217,144.8409,91.5625,268.551,2.6853e-05,1.4e-06,0.0,0 STARLINK-4743,1 53787U 22111Q   23231.13675456  .00000140  00000-0  26853-4 0  9998,2 53787  53.2170 144.8409 0001253  91.5625 268.5510 15.08843037 51955,6917.871,95.437,540.603,538.869,0.0
53787.0,STARLINK-4743,PAYLOAD,2023-08-20 03:07:44,15.08825094,0.0001304,53.217,140.3811,91.986,268.1282,-0.00012551,-2.284e-05,0.0,0 STARLINK-4743,1 53787U 22111Q   23232.13037633 -.00002284  00000-0 -12551-3 0  9990,2 53787  53.2170 140.3811 0001304  91.9860 268.1282 15.08825094 52108,6917.926,95.438,540.693,538.889,0.0
53787.0,STARLINK-4743,PAYLOAD,2023-08-21 02:58:31,15.08841008,0.0001375,53.2167,135.9193,92.5556,267.5593,0.0001027,1.347e-05,0.0,0 STARLINK-4743,1 53787U 22111Q   23233.12397035  .00001347  00000-0  10270-3 0  9998,2 53787  53.2167 135.9193 0001375  92.5556 267.5593 15.08841008 52251,6917.877,95.437,540.694,538.791,0.0
53787.0,STARLINK-4743,PAYLOAD,2023-08-21 23:38:31,15.08845789,0.0001499,53.2166,132.0541,92.7573,267.3591,0.00038089,5.78e-05,0.0,0 STARLINK-4743,1 53787U 22111Q   23233.98508365  .00005780  00000-0  38089-3 0  9995,2 53787  53.2166 132.0541 0001499  92.7573 267.3591 15.08845789 52383,6917.863,95.437,540.765,538.691,0.0
53787.0,STARLINK-4743,PAYLOAD,2023-08-23 02:40:04,15.08857319,0.0001264,53.2158,126.9981,94.8695,265.2442,0.00019457,2.811e-05,0.0,0 STARLINK-4743,1 53787U 22111Q   23235.11116188  .00002811  00000-0  19457-3 0  9990,2 53787  53.2158 126.9981 0001264  94.8695 265.2442 15.08857319 52555,6917.827,95.436,540.567,538.818,0.0
53787.0,STARLINK-4743,PAYLOAD,2023-08-24 02:30:51,15.08850649,0.0001361,53.2162,122.5376,83.1405,276.9742,-4.3646e-05,-9.83e-06,0.0,0 STARLINK-4743,1 53787U 22111Q   23236.10475956 -.00000983  00000-0 -43646-4 0  9999,2 53787  53.2162 122.5376 0001361  83.1405 276.9742 15.08850649 53516,6917.848,95.437,540.654,538.771,0.0
53787.0,STARLINK-4743,PAYLOAD,2023-08-25 00:46:15,15.08847216,0.0001202,53.2161,118.3746,85.79,274.323,6.1732e-05,6.95e-06,0.0,0 STARLINK-4743,1 53787U 22111Q   23237.03212076  .00000695  00000-0  61732-4 0  9998,2 53787  53.2161 118.3746 0001202  85.7900 274.3230 15.08847216 52846,6917.858,95.437,540.555,538.892,0.0
53787.0,STARLINK-4743,PAYLOAD,2023-08-25 02:21:38,15.08849218,0.0001214,53.2165,118.078,86.9529,273.1602,9.1203e-05,1.164e-05,0.0,0 STARLINK-4743,1 53787U 22111Q   23237.09835942  .00001164  00000-0  91203-4 0  9995,2 53787  53.2165 118.0780 0001214  86.9529 273.1602 15.08849218 53663,6917.852,95.437,540.557,538.877,0.0
53787.0,STARLINK-4743,PAYLOAD,2023-08-25 19:50:53,15.08837797,0.0001225,53.2162,114.8077,90.6073,269.506,-3.4605e-06,-3.43e-06,0.0,0 STARLINK-4743,1 53787U 22111Q   23237.82700588 -.00000343  00000-0 -34605-5 0  9997,2 53787  53.2162 114.8077 0001225  90.6073 269.5060 15.08837797 53779,6917.887,95.438,540.6,538.905,0.0
53787.0,STARLINK-4743,PAYLOAD,2023-08-26 00:37:02,15.0884047,0.000127,53.2164,113.9159,91.9382,268.1756,3.7303e-05,3.06e-06,0.0,0 STARLINK-4743,1 53787U 22111Q   23238.02572462  .00000306  00000-0  37303-4 0  9992,2 53787  53.2164 113.9159 0001270  91.9382 268.1756 15.08840470 52991,6917.879,95.438,540.623,538.865,0.0
53787.0,STARLINK-4743,PAYLOAD,2023-08-26 21:17:03,15.08841243,0.0001375,53.2164,110.0502,89.5329,270.5821,2.5749e-06,-2.47e-06,0.0,0 STARLINK-4743,1 53787U 22111Q   23238.88684668 -.00000247  00000-0  25749-5 0  9995,2 53787  53.2164 110.0502 0001375  89.5329 270.5821 15.08841243 53935,6917.877,95.437,540.693,538.79,0.0
53787.0,STARLINK-4743,PAYLOAD,2023-08-27 00:27:49,15.08845938,0.0001371,53.2161,109.4552,82.5431,277.5717,4.9356e-05,4.98e-06,0.0,0 STARLINK-4743,1 53787U 22111Q   23239.01932469  .00000498  00000-0  49356-4 0  9992,2 53787  53.2161 109.4552 0001371  82.5431 277.5717 15.08845938 53950,6917.862,95.437,540.676,538.779,0.0
53787.0,STARLINK-4743,PAYLOAD,2023-08-27 21:07:50,15.08841038,0.0001381,53.2159,105.5892,82.0225,278.0924,0.00012932,1.771e-05,0.0,0 STARLINK-4743,1 53787U 22111Q   23239.88044859  .00001771  00000-0  12932-3 0  9998,2 53787  53.2159 105.5892 0001381  82.0225 278.0924 15.08841038 54086,6917.877,95.437,540.698,538.787,0.0
53787.0,STARLINK-4743,PAYLOAD,2023-08-28 00:18:36,15.08845382,0.000136,53.2161,104.995,85.7313,274.3835,0.00018623,2.678e-05,0.0,0 STARLINK-4743,1 53787U 22111Q   23240.01292639  .00002678  00000-0  18623-3 0  9996,2 53787  53.2161 104.9950 0001360  85.7313 274.3835 15.08845382 53290,6917.864,95.437,540.67,538.788,0.0
53787.0,STARLINK-4743,PAYLOAD,2023-08-28 08:15:32,15.08840661,0.0001372,53.216,103.5085,85.4371,274.6778,9.7766e-05,1.268e-05,0.0,0 STARLINK-4743,1 53787U 22111Q   23240.34412923  .00001268  00000-0  97766-4 0  9992,2 53787  53.2160 103.5085 0001372  85.4371 274.6778 15.08840661 53347,6917.878,95.438,540.693,538.794,0.0
53787.0,STARLINK-4743,PAYLOAD,2023-08-28 20:58:38,15.08839129,0.0001436,53.2163,101.129,85.9644,274.1512,4.5849e-05,4.42e-06,0.0,0 STARLINK-4743,1 53787U 22111Q   23240.87405093  .00000442  00000-0  45849-4 0  9998,2 53787  53.2163 101.1290 0001436  85.9644 274.1512 15.08839129 54238,6917.883,95.438,540.741,538.755,0.0
53787.0,STARLINK-4743,PAYLOAD,2023-08-29 08:06:19,15.0884176,0.0001439,53.2167,99.0462,84.6785,275.4371,6.7221e-05,7.82e-06,0.0,0 STARLINK-4743,1 53787U 22111Q   23241.33772990  .00000782  00000-0  67221-4 0  9998,2 53787  53.2167  99.0462 0001439  84.6785 275.4371 15.08841760 54302,6917.875,95.437,540.735,538.745,0.0
53787.0,STARLINK-4743,PAYLOAD,2023-08-29 22:24:48,15.08843578,0.0001433,53.2168,96.3692,88.2144,271.9013,7e-05,8.26e-06,0.0,0 STARLINK-4743,1 53787U 22111Q   23241.93388914  .00000826  00000-0  70000-4 0  9991,2 53787  53.2168  96.3692 0001433  88.2144 271.9013 15.08843578 53583,6917.869,95.437,540.726,538.743,0.0
53787.0,STARLINK-4743,PAYLOAD,2023-08-30 15:54:02,15.08836508,0.0001512,53.2167,93.0988,87.9935,272.123,0.00015261,2.141e-05,0.0,0 STARLINK-4743,1 53787U 22111Q   23242.66253275  .00002141  00000-0  15261-3 0  9992,2 53787  53.2167  93.0988 0001512  87.9935 272.1230 15.08836508 53697,6917.891,95.438,540.802,538.71,0.0
